NORAD_CAT_ID,OBJECT_NAME,OBJECT_TYPE,EPOCH,MEAN_MOTION,ECCENTRICITY,INCLINATION,RA_OF_ASC_NODE,ARG_OF_PERICENTER,MEAN_ANOMALY,BSTAR,MEAN_MOTION_DOT,MEAN_MOTION_DDOT,TLE_LINE0,TLE_LINE1,TLE_LINE2,SEMIMAJOR_AXIS,PERIOD,APOGEE,PERIGEE,DECAYED
49410.0,STARLINK-3147,PAYLOAD,2024-04-10 17:58:00,15.08854212,0.0001446,53.2145,122.3049,99.7555,260.36,0.00037868,5.746e-05,0.0,0 STARLINK-3147,1 49410U 21104C   24101.74861755  .00005746  00000-0  37868-3 0  9994,2 49410  53.2145 122.3049 0001446  99.7555 260.3600 15.08854212134355,6917.837,95.437,540.702,538.702,0.0
49410.0,STARLINK-3147,PAYLOAD,2024-04-11 08:16:28,15.08850462,0.000159,53.2155,119.6295,102.5582,257.5588,8.8102e-05,1.115e-05,0.0,0 STARLINK-3147,1 49410U 21104C   24102.34477428  .00001115  00000-0  88102-4 0  9995,2 49410  53.2155 119.6295 0001590 102.5582 257.5588 15.08850462134447,6917.848,95.437,540.813,538.613,0.0
49410.0,STARLINK-3147,PAYLOAD,2024-04-11 17:48:47,15.08846924,0.0001608,53.2156,117.8464,104.714,255.4031,-3.3169e-05,-8.16e-06,0.0,0 STARLINK-3147,1 49410U 21104C   24102.74221297 -.00000816  00000-0 -33169-4 0  9992,2 49410  53.2156 117.8464 0001608 104.7140 255.4031 15.08846924133414,6917.859,95.437,540.837,538.612,0.0
49410.0,STARLINK-3147,PAYLOAD,2024-04-12 04:56:29,15.08841822,0.0001618,53.2174,115.7647,104.0739,256.0433,-5.0607e-05,-1.093e-05,0.0,0 STARLINK-3147,1 49410U 21104C   24103.20590130 -.00001093  00000-0 -50607-4 0  9993,2 49410  53.2174 115.7647 0001618 104.0739 256.0433 15.08841822134575,6917.875,95.437,540.859,538.621,0.0
49410.0,STARLINK-3147,PAYLOAD,2024-04-12 11:18:02,15.08842564,0.00016,53.2173,114.5751,103.076,257.0411,-5.4086e-05,-1.149e-05,0.0,0 STARLINK-3147,1 49410U 21104C   24103.47085987 -.00001149  00000-0 -54086-4 0  9998,2 49410  53.2173 114.5751 0001600 103.0760 257.0411 15.08842564133526,6917.873,95.437,540.844,538.631,0.0
49410.0,STARLINK-3147,PAYLOAD,2024-04-13 07:58:02,15.08846853,0.0001542,53.2173,110.7087,95.2324,264.8844,7.3674e-05,8.85e-06,0.0,0 STARLINK-3147,1 49410U 21104C   24104.33197142  .00000885  00000-0  73674-4 0  9999,2 49410  53.2173 110.7087 0001542  95.2324 264.8844 15.08846853134745,6917.859,95.437,540.791,538.658,0.0
49410.0,STARLINK-3147,PAYLOAD,2024-04-14 04:38:03,15.08838125,0.0001505,53.2171,106.8419,90.092,270.0245,9.0028e-05,1.145e-05,0.0,0 STARLINK-3147,1 49410U 21104C   24105.19309694  .00001145  00000-0  90028-4 0  9993,2 49410  53.2171 106.8419 0001505  90.0920 270.0245 15.08838125134873,6917.886,95.438,540.792,538.71,0.0
49410.0,STARLINK-3147,PAYLOAD,2024-04-14 07:48:49,15.08841905,0.000151,53.217,106.2472,83.6039,276.5125,9.5091e-05,1.226e-05,0.0,0 STARLINK-3147,1 49410U 21104C   24105.32557496  .00001226  00000-0  95091-4 0  9998,2 49410  53.2170 106.2472 0001510  83.6039 276.5125 15.08841905133800,6917.875,95.437,540.784,538.695,0.0
49410.0,STARLINK-3147,PAYLOAD,2024-04-15 06:04:13,15.08847078,0.0001833,53.2175,102.0857,68.5232,291.5956,7.6256e-05,9.26e-06,0.0,0 STARLINK-3147,1 49410U 21104C   24106.25293247  .00000926  00000-0  76256-4 0  9990,2 49410  53.2175 102.0857 0001833  68.5232 291.5956 15.08847078135034,6917.859,95.437,540.992,538.456,0.0
49410.0,STARLINK-3147,PAYLOAD,2024-04-16 09:05:46,15.0884917,0.0001636,53.2182,97.0271,106.7566,253.3606,6.5565e-05,7.56e-06,0.0,0 STARLINK-3147,1 49410U 21104C   24107.37900671  .00000756  00000-0  65565-4 0  9992,2 49410  53.2182  97.0271 0001636 106.7566 253.3606 15.08849170135203,6917.852,95.437,540.849,538.586,0.0
49410.0,STARLINK-3147,PAYLOAD,2024-04-17 04:10:24,15.08843675,0.0001679,53.2182,93.4583,107.0762,253.0414,5.2149e-05,5.42e-06,0.0,0 STARLINK-3147,1 49410U 21104C   24108.17388961  .00000542  00000-0  52149-4 0  9990,2 49410  53.2182  93.4583 0001679 107.0762 253.0414 15.08843675135329,6917.869,95.437,540.896,538.573,0.0
49410.0,STARLINK-3147,PAYLOAD,2024-04-18 04:01:12,15.08822549,0.0001605,53.2192,88.9985,106.6982,253.4187,3.9628e-05,3.42e-06,0.0,0 STARLINK-3147,1 49410U 21104C   24109.16750671  .00000342  00000-0  39628-4 0  9996,2 49410  53.2192  88.9985 0001605 106.6982 253.4187 15.08822549135477,6917.934,95.439,540.909,538.688,0.0
49410.0,STARLINK-3147,PAYLOAD,2024-04-18 08:47:21,15.0883027,0.0001372,53.2193,88.106,104.0469,256.0676,-8.0396e-05,-1.567e-05,0.0,0 STARLINK-3147,1 49410U 21104C   24109.36622555 -.00001567  00000-0 -80396-4 0  9997,2 49410  53.2193  88.1060 0001372 104.0469 256.0676 15.08830270134412,6917.91,95.438,540.724,538.826,0.0
49410.0,STARLINK-3147,PAYLOAD,2024-04-19 03:51:58,15.08842899,0.0001022,53.2175,84.5387,94.5544,265.5565,5.0977e-06,-2.07e-06,0.0,0 STARLINK-3147,1 49410U 21104C   24110.16109881 -.00000207  00000-0  50977-5 0  9991,2 49410  53.2175  84.5387 0001022  94.5544 265.5565 15.08842899135629,6917.872,95.437,540.444,539.03,0.0
49410.0,STARLINK-3147,PAYLOAD,2024-04-19 22:56:36,15.08841808,0.0001034,53.2176,80.97,90.6994,269.4116,0.00017596,2.514e-05,0.0,0 STARLINK-3147,1 49410U 21104C   24110.95597526  .00002514  00000-0  17596-3 0  9995,2 49410  53.2176  80.9700 0001034  90.6994 269.4116 15.08841808134654,6917.875,95.437,540.455,539.025,0.0
49410.0,STARLINK-3147,PAYLOAD,2024-04-20 05:18:08,15.08853287,0.0001252,53.2186,79.7808,73.5992,286.5137,0.00027674,4.121e-05,0.0,0 STARLINK-3147,1 49410U 21104C   24111.22092783  .00004121  00000-0  27674-3 0  9995,2 49410  53.2186  79.7808 0001252  73.5992 286.5137 15.08853287135782,6917.84,95.437,540.571,538.839,0.0
49410.0,STARLINK-3147,PAYLOAD,2024-04-20 06:53:31,15.08859385,0.0001335,53.2182,79.4834,87.7083,272.4062,0.0003924,5.966e-05,0.0,0 STARLINK-3147,1 49410U 21104C   24111.28716876  .00005966  00000-0  39240-3 0  9997,2 49410  53.2182  79.4834 0001335  87.7083 272.4062 15.08859385134701,6917.821,95.436,540.61,538.763,0.0
49410.0,STARLINK-3147,PAYLOAD,2024-04-21 03:33:34,15.08817355,0.0001631,53.2173,75.6169,92.0573,268.0605,-0.00026832,-4.553e-05,0.0,0 STARLINK-3147,1 49410U 21104C   24112.14831817 -.00004553  00000-0 -26832-3 0  9992,2 49410  53.2173  75.6169 0001631  92.0573 268.0605 15.08817355135922,6917.95,95.439,540.943,538.686,0.0
49410.0,STARLINK-3147,PAYLOAD,2024-04-21 06:44:20,15.08818903,0.0001714,53.2174,75.0221,88.9508,271.168,-0.00023059,-3.954e-05,0.0,0 STARLINK-3147,1 49410U 21104C   24112.28079677 -.00003954  00000-0 -23059-3 0  9997,2 49410  53.2174  75.0221 0001714  88.9508 271.1680 15.08818903134859,6917.945,95.439,540.996,538.624,0.0
49410.0,STARLINK-3147,PAYLOAD,2024-04-22 04:59:43,15.08862136,0.0001739,53.2176,70.8635,80.868,279.2509,0.0010398,0.00016309,0.0,0 STARLINK-3147,1 49410U 21104C   24113.20814655  .00016309  00000-0  10398-2 0  9990,2 49410  53.2176  70.8635 0001739  80.8680 279.2509 15.08862136136085,6917.813,95.436,540.881,538.475,0.0
49410.0,STARLINK-3147,PAYLOAD,2024-04-23 03:15:08,15.08847268,0.0001841,53.2174,66.7005,91.6805,268.4398,0.00023653,3.479e-05,0.0,0 STARLINK-3147,1 49410U 21104C   24114.13551394  .00003479  00000-0  23653-3 0  9994,2 49410  53.2174  66.7005 0001841  91.6805 268.4398 15.08847268136222,6917.858,95.437,540.997,538.45,0.0
49410.0,STARLINK-3147,PAYLOAD,2024-04-23 06:25:54,15.08851367,0.0001885,53.2183,66.0989,87.2529,272.8679,0.00027983,4.17e-05,0.0,0 STARLINK-3147,1 49410U 21104C   24114.26799168  .00004170  00000-0  27983-3 0  9990,2 49410  53.2183  66.0989 0001885  87.2529 272.8679 15.08851367135155,6917.846,95.437,541.015,538.407,0.0
49410.0,STARLINK-3147,PAYLOAD,2024-04-24 06:16:40,15.08855611,0.0001839,53.2194,61.6337,100.5623,259.5576,0.00012967,1.777e-05,0.0,0 STARLINK-3147,1 49410U 21104C   24115.26157917  .00001777  00000-0  12967-3 0  9997,2 49410  53.2194  61.6337 0001839 100.5623 259.5576 15.08855611136399,6917.833,95.437,540.97,538.425,0.0
49410.0,STARLINK-3147,PAYLOAD,2024-04-25 02:56:42,15.08841027,0.0001587,53.2187,57.7696,101.1493,258.9677,8.9843e-05,1.142e-05,0.0,0 STARLINK-3147,1 49410U 21104C   24116.12270877  .00001142  00000-0  89843-4 0  9998,2 49410  53.2187  57.7696 0001587 101.1493 258.9677 15.08841027136523,6917.877,95.437,540.84,538.644,0.0
49410.0,STARLINK-3147,PAYLOAD,2024-04-25 06:07:28,15.08841347,0.0001598,53.2188,57.1756,102.9386,257.1785,9.645e-05,1.247e-05,0.0,0 STARLINK-3147,1 49410U 21104C   24116.25518864  .00001247  00000-0  96450-4 0  9991,2 49410  53.2188  57.1756 0001598 102.9386 257.1785 15.08841347135454,6917.876,95.437,540.847,538.636,0.0
49410.0,STARLINK-3147,PAYLOAD,2024-04-26 04:22:52,15.0885147,0.0001225,53.2186,53.0132,98.9081,261.205,0.00032254,4.851e-05,0.0,0 STARLINK-3147,1 49410U 21104C   24117.18254649  .00004851  00000-0  32254-3 0  9997,2 49410  53.2186  53.0132 0001225  98.9081 261.2050 15.08851470136683,6917.845,95.437,540.558,538.863,0.0
49410.0,STARLINK-3147,PAYLOAD,2024-04-26 12:19:47,15.08847461,0.0001203,53.2184,51.5334,89.0456,271.0674,0.00023124,3.395e-05,0.0,0 STARLINK-3147,1 49410U 21104C   24117.51374726  .00003395  00000-0  23124-3 0  9991,2 49410  53.2184  51.5334 0001203  89.0456 271.0674 15.08847461135642,6917.858,95.437,540.555,538.89,0.0
49410.0,STARLINK-3147,PAYLOAD,2024-04-27 12:10:34,15.08848446,0.000157,53.2187,47.0713,67.0142,293.1016,0.00011369,1.522e-05,0.0,0 STARLINK-3147,1 49410U 21104C   24118.50734509  .00001522  00000-0  11369-3 0  9998,2 49410  53.2187  47.0713 0001570  67.0142 293.1016 15.08848446136887,6917.855,95.437,540.806,538.633,0.0
49410.0,STARLINK-3147,PAYLOAD,2024-04-28 04:04:27,15.08834599,0.0001643,53.2187,44.099,74.6043,285.513,-0.00012213,-2.231e-05,0.0,0 STARLINK-3147,1 49410U 21104C   24119.16975772 -.00002231  00000-0 -12213-3 0  9999,2 49410  53.2187  44.0990 0001643  74.6043 285.5130 15.08834599136983,6917.897,95.438,540.899,538.625,0.0
49410.0,STARLINK-3147,PAYLOAD,2024-04-28 12:01:22,15.08836952,0.0001357,53.218,42.6126,82.2574,277.8573,-5.3589e-05,-1.141e-05,0.0,0 STARLINK-3147,1 49410U 21104C   24119.50095555 -.00001141  00000-0 -53589-4 0  9990,2 49410  53.2180  42.6126 0001357  82.2574 277.8573 15.08836952135942,6917.89,95.438,540.693,538.816,0.0
